A10a1Gd 19.0  0.15  K18BI 321.88848   55.21527   83.03679    8.91104  0.4296108  0.40829105   1.7995178                  4   1    0 days 0.23         NEOCPV2417
A10a1Gd 19.0  0.15  K18BI 319.66682   54.85863   83.57863    8.75325  0.4080042  0.42436654   1.7537807                  4   1    0 days 0.23         NEOCPV2418
A10a1Gd 19.0  0.15  K18BI 317.40307   54.49744   84.14264    8.59568  0.3864877  0.43997379   1.7120568                  4   1    0 days 0.23         NEOCPV2419
A10a1Gd 19.0  0.15  K18BI 315.09588   54.13419   84.72905    8.43870  0.3650616  0.45508409   1.6739466                  4   1    0 days 0.23         NEOCPV2420
A10a1Gd 19.0  0.15  K18BI 312.74221   53.77129   85.34008    8.28202  0.3437260  0.46967922   1.6390863                  4   1    0 days 0.23         NEOCPV2421
A10a1Gd 19.0  0.15  K18BI 310.33927   53.41179   85.97665    8.12591  0.3224813  0.48373034   1.6071898                  4   1    0 days 0.23         NEOCPV2422
A10a1Gd 19.0  0.15  K18BI 307.88276   53.05952   86.64039    7.97045  0.3013282  0.49721178   1.5780053                  4   1    0 days 0.23         NEOCPV2423
A10a1Gd 19.0  0.15  K18BI 305.36498   52.72271   87.33236    7.81569  0.2802678  0.51011484   1.5512820                  4   1    0 days 0.23         NEOCPV2424
A10a1Gd 19.0  0.15  K18BI 302.77842   52.40749   88.05486    7.66174  0.2593014  0.52240709   1.5268511                  4   1    0 days 0.23         NEOCPV2425
A10a1Gd 19.0  0.15  K18BI 300.10964   52.12747   88.80907    7.50869  0.2384315  0.53407992   1.5045220                  4   1    0 days 0.23         NEOCPV2426
A10a1Gd 19.0  0.15  K18BI 297.34220   51.89831   89.59678    7.35678  0.2176614  0.54510710   1.4841626                  4   1    0 days 0.23         NEOCPV2427
A10a1Gd 19.0  0.15  K18BI 294.45004   51.74498   90.42038    7.20594  0.1969961  0.55548090   1.4656265                  4   1    0 days 0.23         NEOCPV2428
A10a1Gd 19.0  0.15  K18BI 291.39614   51.70341   91.28202    7.05631  0.1764430  0.56518552   1.4488009                  4   1    0 days 0.23         NEOCPV2429
A10a1Gd 19.0  0.15  K18BI 288.12473   51.82977   92.18234    6.90837  0.1560138  0.57419982   1.4335979                  4   1    0 days 0.23         NEOCPV2430
A10a1Gd 19.0  0.15  K18BI 284.54424   52.21366   93.12448    6.76199  0.1357277  0.58252080   1.4199131                  4   1    0 days 0.23         NEOCPV2431
A10a1Gd 19.0  0.15  K18BI 280.50165   53.00810   94.10954    6.61745  0.1156168  0.59014186   1.4076622                  4   1    0 days 0.23         NEOCPV2432
A10a1Gd 19.0  0.15  K18BI 275.72522   54.48219   95.14118    6.47512  0.0957406  0.59702322   1.3968247                  4   1    0 days 0.23         NEOCPV2433
A10a1Gd 19.0  0.15  K18BI 269.66446   57.18699   96.22014    6.33522  0.0762199  0.60317177   1.3873159                  4   1    0 days 0.23         NEOCPV2434
A10a1Gd 19.0  0.15  K18BI 261.08207   62.35943   97.34826    6.19789  0.0573355  0.60858770   1.3790730                  4   1    0 days 0.23         NEOCPV2435
A10a1Gd 19.0  0.15  K18BI 246.74136   73.23726   98.52685    6.06385  0.0398822  0.61324034   1.3720889                  4   1    0 days 0.23         NEOCPV2436
A10a1Gd 19.0  0.15  K18BI 217.85823   98.61844   99.74737    5.93555  0.0266451  0.61707246   1.3664024                  4   1    0 days 0.23         NEOCPV2437
A10a1Gd 19.0  0.15  K18BI 167.75307  144.92862  101.13094    5.79349  0.0252271  0.62054822   1.3612953                  4   1    0 days 0.23         NEOCPV2438
A10a1Gd 19.0  0.15  K18BI 134.95656  173.99942  102.56610    5.64742  0.0368919  0.62343231   1.3570937                  4   1    0 days 0.23         NEOCPV2439
A10a1Gd 19.0  0.15  K18BI 118.89660  186.25539  104.07264    5.50768  0.0536190  0.62548586   1.3541218                  4   1    0 days 0.23         NEOCPV2440
A10a1Gd 19.0  0.15  K18BI 109.61062  191.65886  105.65577    5.37280  0.0719009  0.62675973   1.3522863                  4   1    0 days 0.23         NEOCPV2441
A10a1Gd 19.0  0.15  K18BI 103.20628  194.09516  107.32509    5.24206  0.0907564  0.62728400   1.3515328                  4   1    0 days 0.23         NEOCPV2442
A10a1Gd 19.0  0.15  K18BI  98.22960  195.01911  109.08080    5.11622  0.1098527  0.62703673   1.3518880                  4   1    0 days 0.23         NEOCPV2443
A10a1Gd 19.0  0.15  K18BI  94.05230  195.06035  110.92255    4.99589  0.1290512  0.62601046   1.3533652                  4   1    0 days 0.23         NEOCPV2444
A10a1Gd 19.0  0.15  K18BI  90.36737  194.51925  112.85815    4.88092  0.1482850  0.62422005   1.3559518                  4   1    0 days 0.23         NEOCPV2445
A10a1Gd 19.0  0.15  K18BI  87.00822  193.56254  114.88851    4.77170  0.1675182  0.62168048   1.3596420                  4   1    0 days 0.23         NEOCPV2446
A10a1Gd 19.0  0.15  K18BI  83.87363  192.28778  117.01808    4.66864  0.1867302  0.61837884   1.3644773                  4   1    0 days 0.23         NEOCPV2447
A10a1Gd 19.0  0.15  K18BI  80.90334  190.75887  119.24424    4.57229  0.2059084  0.61432839   1.3704683                  4   1    0 days 0.23         NEOCPV2448
A10a1Gd 19.0  0.15  K18BI  78.05588  189.01837  121.56676    4.48314  0.2250448  0.60952378   1.3776607                  4   1    0 days 0.23         NEOCPV2449
A10a1Gd 19.0  0.15  K18BI  75.30802  187.09042  123.98584    4.40141  0.2441340  0.60400136   1.3860453                  4   1    0 days 0.23         NEOCPV2450
A10a1Gd 19.0  0.15  K18BI  72.63647  185.00019  126.50038    4.32774  0.2631727  0.59773308   1.3957186                  4   1    0 days 0.23         NEOCPV2451
A10a1Gd 19.0  0.15  K18BI  70.03153  182.76581  129.10301    4.26253  0.2821586  0.59075705   1.4066847                  4   1    0 days 0.23         NEOCPV2452
A10a1Gd 19.0  0.15  K18BI  67.48028  180.40873  131.78610    4.20639  0.3010901  0.58305539   1.4190450                  4   1    0 days 0.23         NEOCPV2453
A10a1Gd 19.0  0.15  K18BI  64.97918  177.93803  134.54512    4.15952  0.3199662  0.57466870   1.4328180                  4   1    0 days 0.23         NEOCPV2454
A10a1Gd 19.0  0.15  K18BI  62.51941  175.37228  137.37130    4.12248  0.3387865  0.56557686   1.4481325                  4   1    0 days 0.23         NEOCPV2455
A10a1Gd 19.0  0.15  K18BI  60.09834  172.74504  140.23469    4.09572  0.3575505  0.55580256   1.4650609                  4   1    0 days 0.23         NEOCPV2456
A10a1Gd 19.0  0.15  K18BI  57.71315  170.05092  143.14462    4.07928  0.3762584  0.54535910   1.4837054                  4   1    0 days 0.23         NEOCPV2457
A10a1Gd 19.0  0.15  K18BI  55.36427  167.30455  146.08687    4.07336  0.3949101  0.53428469   1.5041376                  4   1    0 days 0.23         NEOCPV2458
A10a1Gd 19.0  0.15  K18BI  53.04641  164.54680  149.02712    4.07826  0.4135059  0.52255866   1.5265558                  4   1    0 days 0.23         NEOCPV2459
A10a1Gd 19.0  0.15  K18BI  50.76154  161.77380  151.96813    4.09393  0.4320461  0.51022647   1.5510557                  4   1    0 days 0.23         NEOCPV2460
A10a1Gd 19.0  0.15  K18BI  48.50606  159.02714  154.87336    4.12028  0.4505313  0.49727608   1.5778692                  4   1    0 days 0.23         NEOCPV2461
A10a1Gd 19.0  0.15  K18BI  46.28299  156.28866  157.75860    4.15737  0.4689618  0.48376063   1.6071227                  4   1    0 days 0.23         NEOCPV2462
A10a1Gd 19.0  0.15  K18BI  44.09025  153.59818  160.58755    4.20484  0.4873381  0.46968005   1.6390844                  4   1    0 days 0.23         NEOCPV2463
A10a1Gd 19.0  0.15  K18BI  41.92811  150.96288  163.35397    4.26249  0.5056610  0.45505693   1.6740133                  4   1    0 days 0.23         NEOCPV2464
A10a1Gd 19.0  0.15  K18BI  39.79717  148.39324  166.04793    4.32999  0.5239309  0.43991754   1.7122028                  4   1    0 days 0.23         NEOCPV2465
A10a1Gd 19.0  0.15  K18BI  37.69797  145.89403  168.66539    4.40712  0.5421486  0.42428689   1.7540002                  4   1    0 days 0.23         NEOCPV2466
A10a1Gd 19.0  0.15  K18BI  35.63106  143.48658  171.18580    4.49303  0.5603148  0.40819033   1.7998138                  4   1    0 days 0.23         NEOCPV2467
A10a1Gd 19.0  0.15  K18BI  33.59717  141.16476  173.61595    4.58765  0.5784300  0.39165549   1.8501200                  4   1    0 days 0.23         NEOCPV2468
A10a1Gd 19.0  0.15  K18BI  31.59779  138.92979  175.95430    4.69064  0.5964951  0.37471887   1.9054564                  4   1    0 days 0.23         NEOCPV2469
A10a1Gd 19.0  0.15  K18BI  29.63360  136.78711  178.19630    4.80146  0.6145108  0.35740890   1.9664933                  4   1    0 days 0.23         NEOCPV2470
A10a1Gd 19.0  0.15  K18BI  27.70517  134.74523  180.33475    4.91934  0.6324779  0.33975244   2.0340471                  4   1    0 days 0.23         NEOCPV2471
A10a1Gd 19.0  0.15  K18BI  25.81469  132.79645  182.37624    5.04408  0.6503970  0.32179707   2.1090231                  4   1    0 days 0.23         NEOCPV2472
A10a1Gd 19.0  0.15  K18BI  23.96285  130.94191  184.32113    5.17518  0.6682691  0.30357321   2.1926051                  4   1    0 days 0.23         NEOCPV2473
A10a1Gd 19.0  0.15  K18BI  22.15157  129.17429  186.17636    5.31258  0.6860948  0.28512741   2.2861781                  4   1    0 days 0.23         NEOCPV2474
A10a1Gd 18.9  0.15  K18BI 345.14264   59.12057   77.97032   10.93904  0.6960750  0.19031517   2.9933243                  4   1    0 days 0.23         NEOCPV2475
A10a1Gd 18.9  0.15  K18BI 343.44378   58.86685   78.31783   10.78205  0.6733702  0.20902511   2.8119251                  4   1    0 days 0.23         NEOCPV2476
A10a1Gd 18.9  0.15  K18BI 341.69119   58.60628   78.67690   10.62490  0.6507596  0.22777226   2.6554339                  4   1    0 days 0.23         NEOCPV2477
A10a1Gd 18.9  0.15  K18BI 339.88706   58.33914   79.04821   10.46754  0.6282428  0.24649777   2.5191888                  4   1    0 days 0.23         NEOCPV2478
